ORBCOMM FM24 [-]        
1 25478U 98053D   23246.35848050  .00001281  00000+0  49902-3 0  9999
2 25478  45.0088 115.0907 0000248 196.8172 163.2667 14.34587305303595
ORBCOMM FM25 [-]        
1 25479U 98053E   23246.32192435  .00001284  00000+0  50021-3 0  9993
2 25479  45.0083 113.4949 0002852 224.3915 135.6703 14.34578201303885
ORBCOMM FM26 [-]        
1 25480U 98053F   23246.31495956  .00001003  00000+0  40459-3 0  9991
2 25480  45.0077 106.7434 0005105 247.1671 112.8636 14.34177281303830
ORBCOMM FM27 [+]        
1 25481U 98053G   23246.37549833  .00001356  00000+0  52558-3 0  9996
2 25481  45.0063 113.4947 0001303  21.7267 338.3634 14.34547085303828
ORBCOMM FM28 [-]        
1 25482U 98053H   23246.51416646  .00001111  00000+0  43509-3 0  9993
2 25482  45.0078  52.2116 0003519 259.1480 100.8971 14.35057234304503
ORBCOMM FM30 [-]        
1 25980U 99065A   23246.23059587  .00000909  00000+0  37045-3 0  9998
2 25980  45.0324 292.4205 0006435 323.2175  36.8230 14.34299734240610
ORBCOMM FM31 [-]        
1 25981U 99065B   23246.47792248  .00000955  00000+0  38665-3 0  9993
2 25981  45.0234 285.1603 0003192 328.2259  31.8395 14.34338659240209
ORBCOMM FM32 [+]        
1 25982U 99065C   23246.41686226  .00000929  00000+0  38531-3 0  9999
2 25982  45.0169 297.4050 0004757 347.1283  12.9442 14.33284647240854
