<?xml version="1.0" encoding="UTF-8"?>
<ndm xmlns:xsi="http://www.w3.org/2001/XMLSchema-instance" xsi:noNamespaceSchemaLocation="https://sanaregistry.org/r/ndmxml_unqualified/ndmxml-2.0.0-master-2.0.xsd">
<omm id="CCSDS_OMM_VERS" version="2.0">
<header><CREATION_DATE/><ORIGINATOR/></header><body><segment><metadata><OBJECT_NAME>ORBCOMM FM24 [-]</OBJECT_NAME><OBJECT_ID>1998-053D</OBJECT_ID><CENTER_NAME>EARTH</CENTER_NAME><REF_FRAME>TEME</REF_FRAME><TIME_SYSTEM>UTC</TIME_SYSTEM><MEAN_ELEMENT_THEORY>SGP4</MEAN_ELEMENT_THEORY></metadata><data><meanElements><EPOCH>2023-09-03T08:36:12.715200</EPOCH><MEAN_MOTION>14.34587305</MEAN_MOTION><ECCENTRICITY>.0000248</ECCENTRICITY><INCLINATION>45.0088</INCLINATION><RA_OF_ASC_NODE>115.0907</RA_OF_ASC_NODE><ARG_OF_PERICENTER>196.8172</ARG_OF_PERICENTER><MEAN_ANOMALY>163.2667</MEAN_ANOMALY></meanElements><tleParameters><EPHEMERIS_TYPE>0</EPHEMERIS_TYPE><CLASSIFICATION_TYPE>U</CLASSIFICATION_TYPE><NORAD_CAT_ID>25478</NORAD_CAT_ID><ELEMENT_SET_NO>999</ELEMENT_SET_NO><REV_AT_EPOCH>30359</REV_AT_EPOCH><BSTAR>.49902E-3</BSTAR><MEAN_MOTION_DOT>.1281E-4</MEAN_MOTION_DOT><MEAN_MOTION_DDOT>0</MEAN_MOTION_DDOT></tleParameters></data></segment></body></omm>
<omm id="CCSDS_OMM_VERS" version="2.0">
<header><CREATION_DATE/><ORIGINATOR/></header><body><segment><metadata><OBJECT_NAME>ORBCOMM FM25 [-]</OBJECT_NAME><OBJECT_ID>1998-053E</OBJECT_ID><CENTER_NAME>EARTH</CENTER_NAME><REF_FRAME>TEME</REF_FRAME><TIME_SYSTEM>UTC</TIME_SYSTEM><MEAN_ELEMENT_THEORY>SGP4</MEAN_ELEMENT_THEORY></metadata><data><meanElements><EPOCH>2023-09-03T07:43:34.263840</EPOCH><MEAN_MOTION>14.34578201</MEAN_MOTION><ECCENTRICITY>.0002852</ECCENTRICITY><INCLINATION>45.0083</INCLINATION><RA_OF_ASC_NODE>113.4949</RA_OF_ASC_NODE><ARG_OF_PERICENTER>224.3915</ARG_OF_PERICENTER><MEAN_ANOMALY>135.6703</MEAN_ANOMALY></meanElements><tleParameters><EPHEMERIS_TYPE>0</EPHEMERIS_TYPE><CLASSIFICATION_TYPE>U</CLASSIFICATION_TYPE><NORAD_CAT_ID>25479</NORAD_CAT_ID><ELEMENT_SET_NO>999</ELEMENT_SET_NO><REV_AT_EPOCH>30388</REV_AT_EPOCH><BSTAR>.50021E-3</BSTAR><MEAN_MOTION_DOT>.1284E-4</MEAN_MOTION_DOT><MEAN_MOTION_DDOT>0</MEAN_MOTION_DDOT></tleParameters></data></segment></body></omm>
<omm id="CCSDS_OMM_VERS" version="2.0">
<header><CREATION_DATE/><ORIGINATOR/></header><body><segment><metadata><OBJECT_NAME>ORBCOMM FM26 [-]</OBJECT_NAME><OBJECT_ID>1998-053F</OBJECT_ID><CENTER_NAME>EARTH</CENTER_NAME><REF_FRAME>TEME</REF_FRAME><TIME_SYSTEM>UTC</TIME_SYSTEM><MEAN_ELEMENT_THEORY>SGP4</MEAN_ELEMENT_THEORY></metadata><data><meanElements><EPOCH>2023-09-03T07:33:32.505984</EPOCH><MEAN_MOTION>14.34177281</MEAN_MOTION><ECCENTRICITY>.0005105</ECCENTRICITY><INCLINATION>45.0077</INCLINATION><RA_OF_ASC_NODE>106.7434</RA_OF_ASC_NODE><ARG_OF_PERICENTER>247.1671</ARG_OF_PERICENTER><MEAN_ANOMALY>112.8636</MEAN_ANOMALY></meanElements><tleParameters><EPHEMERIS_TYPE>0</EPHEMERIS_TYPE><CLASSIFICATION_TYPE>U</CLASSIFICATION_TYPE><NORAD_CAT_ID>25480</NORAD_CAT_ID><ELEMENT_SET_NO>999</ELEMENT_SET_NO><REV_AT_EPOCH>30383</REV_AT_EPOCH><BSTAR>.40459E-3</BSTAR><MEAN_MOTION_DOT>.1003E-4</MEAN_MOTION_DOT><MEAN_MOTION_DDOT>0</MEAN_MOTION_DDOT></tleParameters></data></segment></body></omm>
<omm id="CCSDS_OMM_VERS" version="2.0">
<header><CREATION_DATE/><ORIGINATOR/></header><body><segment><metadata><OBJECT_NAME>ORBCOMM FM27 [+]</OBJECT_NAME><OBJECT_ID>1998-053G</OBJECT_ID><CENTER_NAME>EARTH</CENTER_NAME><REF_FRAME>TEME</REF_FRAME><TIME_SYSTEM>UTC</TIME_SYSTEM><MEAN_ELEMENT_THEORY>SGP4</MEAN_ELEMENT_THEORY></metadata><data><meanElements><EPOCH>2023-09-03T09:00:43.055712</EPOCH><MEAN_MOTION>14.34547085</MEAN_MOTION><ECCENTRICITY>.0001303</ECCENTRICITY><INCLINATION>45.0063</INCLINATION><RA_OF_ASC_NODE>113.4947</RA_OF_ASC_NODE><ARG_OF_PERICENTER>21.7267</ARG_OF_PERICENTER><MEAN_ANOMALY>338.3634</MEAN_ANOMALY></meanElements><tleParameters><EPHEMERIS_TYPE>0</EPHEMERIS_TYPE><CLASSIFICATION_TYPE>U</CLASSIFICATION_TYPE><NORAD_CAT_ID>25481</NORAD_CAT_ID><ELEMENT_SET_NO>999</ELEMENT_SET_NO><REV_AT_EPOCH>30382</REV_AT_EPOCH><BSTAR>.52558E-3</BSTAR><MEAN_MOTION_DOT>.1356E-4</MEAN_MOTION_DOT><MEAN_MOTION_DDOT>0</MEAN_MOTION_DDOT></tleParameters></data></segment></body></omm>
<omm id="CCSDS_OMM_VERS" version="2.0">
<header><CREATION_DATE/><ORIGINATOR/></header><body><segment><metadata><OBJECT_NAME>ORBCOMM FM28 [-]</OBJECT_NAME><OBJECT_ID>1998-053H</OBJECT_ID><CENTER_NAME>EARTH</CENTER_NAME><REF_FRAME>TEME</REF_FRAME><TIME_SYSTEM>UTC</TIME_SYSTEM><MEAN_ELEMENT_THEORY>SGP4</MEAN_ELEMENT_THEORY></metadata><data><meanElements><EPOCH>2023-09-03T12:20:23.982144</EPOCH><MEAN_MOTION>14.35057234</MEAN_MOTION><ECCENTRICITY>.0003519</ECCENTRICITY><INCLINATION>45.0078</INCLINATION><RA_OF_ASC_NODE>52.2116</RA_OF_ASC_NODE><ARG_OF_PERICENTER>259.1480</ARG_OF_PERICENTER><MEAN_ANOMALY>100.8971</MEAN_ANOMALY></meanElements><tleParameters><EPHEMERIS_TYPE>0</EPHEMERIS_TYPE><CLASSIFICATION_TYPE>U</CLASSIFICATION_TYPE><NORAD_CAT_ID>25482</NORAD_CAT_ID><ELEMENT_SET_NO>999</ELEMENT_SET_NO><REV_AT_EPOCH>30450</REV_AT_EPOCH><BSTAR>.43509E-3</BSTAR><MEAN_MOTION_DOT>.1111E-4</MEAN_MOTION_DOT><MEAN_MOTION_DDOT>0</MEAN_MOTION_DDOT></tleParameters></data></segment></body></omm>
<omm id="CCSDS_OMM_VERS" version="2.0">
<header><CREATION_DATE/><ORIGINATOR/></header><body><segment><metadata><OBJECT_NAME>ORBCOMM FM30 [-]</OBJECT_NAME><OBJECT_ID>1999-065A</OBJECT_ID><CENTER_NAME>EARTH</CENTER_NAME><REF_FRAME>TEME</REF_FRAME><TIME_SYSTEM>UTC</TIME_SYSTEM><MEAN_ELEMENT_THEORY>SGP4</MEAN_ELEMENT_THEORY></metadata><data><meanElements><EPOCH>2023-09-03T05:32:03.483168</EPOCH><MEAN_MOTION>14.34299734</MEAN_MOTION><ECCENTRICITY>.0006435</ECCENTRICITY><INCLINATION>45.0324</INCLINATION><RA_OF_ASC_NODE>292.4205</RA_OF_ASC_NODE><ARG_OF_PERICENTER>323.2175</ARG_OF_PERICENTER><MEAN_ANOMALY>36.8230</MEAN_ANOMALY></meanElements><tleParameters><EPHEMERIS_TYPE>0</EPHEMERIS_TYPE><CLASSIFICATION_TYPE>U</CLASSIFICATION_TYPE><NORAD_CAT_ID>25980</NORAD_CAT_ID><ELEMENT_SET_NO>999</ELEMENT_SET_NO><REV_AT_EPOCH>24061</REV_AT_EPOCH><BSTAR>.37045E-3</BSTAR><MEAN_MOTION_DOT>.909E-5</MEAN_MOTION_DOT><MEAN_MOTION_DDOT>0</MEAN_MOTION_DDOT></tleParameters></data></segment></body></omm>
<omm id="CCSDS_OMM_VERS" version="2.0">
<header><CREATION_DATE/><ORIGINATOR/></header><body><segment><metadata><OBJECT_NAME>ORBCOMM FM31 [-]</OBJECT_NAME><OBJECT_ID>1999-065B</OBJECT_ID><CENTER_NAME>EARTH</CENTER_NAME><REF_FRAME>TEME</REF_FRAME><TIME_SYSTEM>UTC</TIME_SYSTEM><MEAN_ELEMENT_THEORY>SGP4</MEAN_ELEMENT_THEORY></metadata><data><meanElements><EPOCH>2023-09-03T11:28:12.502272</EPOCH><MEAN_MOTION>14.34338659</MEAN_MOTION><ECCENTRICITY>.0003192</ECCENTRICITY><INCLINATION>45.0234</INCLINATION><RA_OF_ASC_NODE>285.1603</RA_OF_ASC_NODE><ARG_OF_PERICENTER>328.2259</ARG_OF_PERICENTER><MEAN_ANOMALY>31.8395</MEAN_ANOMALY></meanElements><tleParameters><EPHEMERIS_TYPE>0</EPHEMERIS_TYPE><CLASSIFICATION_TYPE>U</CLASSIFICATION_TYPE><NORAD_CAT_ID>25981</NORAD_CAT_ID><ELEMENT_SET_NO>999</ELEMENT_SET_NO><REV_AT_EPOCH>24020</REV_AT_EPOCH><BSTAR>.38665E-3</BSTAR><MEAN_MOTION_DOT>.955E-5</MEAN_MOTION_DOT><MEAN_MOTION_DDOT>0</MEAN_MOTION_DDOT></tleParameters></data></segment></body></omm>
<omm id="CCSDS_OMM_VERS" version="2.0">
<header><CREATION_DATE/><ORIGINATOR/></header><body><segment><metadata><OBJECT_NAME>ORBCOMM FM32 [+]</OBJECT_NAME><OBJECT_ID>1999-065C</OBJECT_ID><CENTER_NAME>EARTH</CENTER_NAME><REF_FRAME>TEME</REF_FRAME><TIME_SYSTEM>UTC</TIME_SYSTEM><MEAN_ELEMENT_THEORY>SGP4</MEAN_ELEMENT_THEORY></metadata><data><meanElements><EPOCH>2023-09-03T10:00:16.899264</EPOCH><MEAN_MOTION>14.33284647</MEAN_MOTION><ECCENTRICITY>.0004757</ECCENTRICITY><INCLINATION>45.0169</INCLINATION><RA_OF_ASC_NODE>297.4050</RA_OF_ASC_NODE><ARG_OF_PERICENTER>347.1283</ARG_OF_PERICENTER><MEAN_ANOMALY>12.9442</MEAN_ANOMALY></meanElements><tleParameters><EPHEMERIS_TYPE>0</EPHEMERIS_TYPE><CLASSIFICATION_TYPE>U</CLASSIFICATION_TYPE><NORAD_CAT_ID>25982</NORAD_CAT_ID><ELEMENT_SET_NO>999</ELEMENT_SET_NO><REV_AT_EPOCH>24085</REV_AT_EPOCH><BSTAR>.38531E-3</BSTAR><MEAN_MOTION_DOT>.929E-5</MEAN_MOTION_DOT><MEAN_MOTION_DDOT>0</MEAN_MOTION_DDOT></tleParameters></data></segment></body></omm>

</ndm>
